              M50 Cartesian                         M50 Keplerian  
    -----------------------------------       --------------------------------
     X    =       -4731237.70                 A    =         6778630.71  meter
     Y    =        -724084.03  meter          E    =           .0013174
     Z    =       -4812664.63                 I    =           51.37101
     XDOT =       3521.234443                 Wp   =           69.40088
     YDOT =      -6319.781737  meter/sec      RA   =          315.23406  deg
     ZDOT =      -2511.870643                 TA   =          175.77891
                                              MA   =          175.76779
                                              Ha   =            221.063  n.mi
                                              Hp   =            213.628
 
              M50 Cartesian                         J2K Cartesian  
    -----------------------------------       --------------------------------
     X    =      -15522433.39                 X    =        -4699410.95
     Y    =       -2375603.76  feet           Y    =         -776813.95  meter
     Z    =      -15789582.13                 Z    =        -4835570.85
     XDOT =      11552.606441                 XDOT =        3603.843890
     YDOT =     -20734.192051  feet/sec       YDOT =       -6279.943072  meter/sec
     ZDOT =      -8241.045416                 ZDOT =       -2494.564404
 
              TDR Cartesian                         TDR Cartesian  
    -----------------------------------       --------------------------------
     X    =      -14105389.20                 X    =        -4299322.63
     Y    =        6669407.16  feet           Y    =         2032835.30  meter
     Z    =      -15888906.16                 Z    =        -4842938.60
     XDOT =      -1515.763909                 XDOT =        -462.004839
     YDOT =     -22648.714013  feet/sec       YDOT =       -6903.328031  meter/sec
     ZDOT =      -8164.651370                 ZDOT =       -2488.585738
  
  
    The mean element set is posted at the UTC for which position is
    just north of the next ascending node relative to the above
    vector time
 
 
    TWO LINE MEAN ELEMENT SET
  
    ISS
    1 25544U 98067A   16117.52047300  .00016717  00000-0  10270-3 0  9116
    2 25544  51.6405 315.7513 0001608  51.5113 308.6184 15.54395412 36940
  
  
    Satellite: ISS
    Catalog Number: 25544
    Epoch time:      16117.52047300   =   yrday.fracday
    Element set:     911
    Inclination:       51.6405  deg
    RA of node:       315.7513  deg
    Eccentricity:     .0001608     
    Arg of perigee:    51.5113  deg
    Mean anomaly:     308.6184  deg
    Mean motion:   15.54395412  rev/day
    Decay rate:    1.67170E-04  rev/day^2
    Epoch rev:            3694
    Checksum:              280
 
 
    Coasting Arc #13 (Orbit 3709)
    ---------------------------------------
 
    Vector Time (GMT): 2016/118/12:00:00.000
    Vector Time (MET): N/A
    Weight (LBS)     : 945238.6
 
              M50 Cartesian                         M50 Keplerian  
    -----------------------------------       --------------------------------
     X    =        3617819.01                 A    =         6776715.81  meter
     Y    =        2247447.23  meter          E    =           .0003940
     Z    =        5267664.55                 I    =           51.34259
     XDOT =      -4598.210791                 Wp   =           91.16310
     YDOT =       6117.332954  meter/sec      RA   =          310.21272  deg
     ZDOT =        547.648040                 TA   =          353.58982
                                              MA   =          353.59486
                                              Ha   =            221.009  n.mi
                                              Hp   =            213.775
 
              M50 Cartesian                         J2K Cartesian  
    -----------------------------------       --------------------------------
     X    =       11869484.93                 X    =         3566830.23
     Y    =        7373514.52  feet           Y    =         2287619.00  meter
     Z    =       17282364.00                 Z    =         5285115.38
     XDOT =     -15085.993408                 XDOT =       -4668.934857
     YDOT =      20069.990006  feet/sec       YDOT =        6065.517262  meter/sec
     ZDOT =       1796.745538                 ZDOT =         525.139001
 
              TDR Cartesian                         TDR Cartesian  
    -----------------------------------       --------------------------------
     X    =       13861132.05                 X    =         4224873.05
     Y    =        -716053.19  feet           Y    =         -218253.01  meter
     Z    =       17357700.90                 Z    =         5290627.24
     XDOT =       -883.399018                 XDOT =        -269.260021
     YDOT =      24089.958965  feet/sec       YDOT =        7342.619493  meter/sec
     ZDOT =       1697.805732                 ZDOT =         517.491187
  
  
    The mean element set is posted at the UTC for which position is
    just north of the next ascending node relative to the above
    vector time
 
 
    TWO LINE MEAN ELEMENT SET
  
    ISS
    1 25544U 98067A   16118.54912404  .00016717  00000-0  10270-3 0  9126
    2 25544  51.6408 310.6204 0001646  55.8087 304.3221 15.54374675 37105
  
  
    Satellite: ISS
    Catalog Number: 25544
    Epoch time:      16118.54912404   =   yrday.fracday
    Element set:     912
    Inclination:       51.6408  deg
    RA of node:       310.6204  deg
    Eccentricity:     .0001646     
    Arg of perigee:    55.8087  deg
    Mean anomaly:     304.3221  deg
    Mean motion:   15.54374675  rev/day
    Decay rate:    1.67170E-04  rev/day^2
    Epoch rev:            3710
    Checksum:              285
 
 
    Coasting Arc #14 (Orbit 3724)
    ---------------------------------------
 
    Vector Time (GMT): 2016/119/12:00:00.000
    Vector Time (MET): N/A
    Weight (LBS)     : 945238.6
 
              M50 Cartesian                         M50 Keplerian  
    -----------------------------------       --------------------------------
     X    =       -2386552.73                 A    =         6777243.76  meter
     Y    =       -3745155.74  meter          E    =           .0014953
     Z    =       -5132795.88                 I    =           51.32407
     XDOT =       5246.256412                 Wp   =           97.20999
     YDOT =      -5376.768042  meter/sec      RA   =          305.18701  deg
     ZDOT =       1485.755604                 TA   =          187.16951
                                              MA   =          187.19092
                                              Ha   =            221.057  n.mi
                                              Hp   =            213.566
 
              M50 Cartesian                         J2K Cartesian  
    -----------------------------------       --------------------------------
     X    =       -7829897.40                 X    =        -2319562.93
     Y    =      -12287256.36  feet           Y    =        -3771469.21  meter
     Z    =      -16839881.48                 Z    =        -5144226.54
     XDOT =      17212.127336                 XDOT =        5298.773627
     YDOT =     -17640.315100  feet/sec       YDOT =       -5317.807268  meter/sec
     ZDOT =       4874.526259                 ZDOT =        1511.368435
 
              TDR Cartesian                         TDR Cartesian  
    -----------------------------------       --------------------------------
     X    =      -13473708.90                 X    =        -4106786.47
     Y    =       -5393844.32  feet           Y    =        -1644043.75  meter
     Z    =      -16888788.66                 Z    =        -5147702.78
     XDOT =       3120.293541                 XDOT =         951.065471
     YDOT =     -23389.298206  feet/sec       YDOT =       -7129.058093  meter/sec
     ZDOT =       4986.791535                 ZDOT =        1519.974060
  
  
    The mean element set is posted at the UTC for which position is
    just north of the next ascending node relative to the above
    vector time
 
 
    TWO LINE MEAN ELEMENT SET
  
    ISS
    1 25544U 98067A   16119.51347287  .00016717  00000-0  10270-3 0  9136
    2 25544  51.6401 305.8094 0001627  61.1771 298.9545 15.54430076 37251
  
  
    Satellite: ISS
    Catalog Number: 25544
    Epoch time:      16119.51347287   =   yrday.fracday
    Element set:     913
    Inclination:       51.6401  deg
    RA of node:       305.8094  deg
    Eccentricity:     .0001627     
    Arg of perigee:    61.1771  deg
    Mean anomaly:     298.9545  deg
    Mean motion:   15.54430076  rev/day
    Decay rate:    1.67170E-04  rev/day^2
    Epoch rev:            3725
    Checksum:              311
 
 
    Coasting Arc #15 (Orbit 3740)
    ---------------------------------------
 
    Vector Time (GMT): 2016/120/12:00:00.000
    Vector Time (MET): N/A
    Weight (LBS)     : 945238.6
 
              M50 Cartesian                         M50 Keplerian  
    -----------------------------------       --------------------------------
     X    =        1113386.95                 A    =         6780295.66  meter
     Y    =        5053876.13  meter          E    =           .0010980
     Z    =        4374142.98                 I    =           51.31667
     XDOT =      -5518.156437                 Wp   =           69.23244
     YDOT =       4135.556084  meter/sec      RA   =          300.16671  deg
     ZDOT =      -3362.951115                 TA   =           54.98014
                                              MA   =           54.87715
                                              Ha   =            220.994  n.mi
                                              Hp   =            213.686
 
